STARLINK-36243          
1 67077U 25298C   26176.17775225  .00006263  00000+0  53182-3 0  9999
2 67077  70.0009 103.6207 0003174 262.5905  97.4894 14.98358130 29316
STARLINK-36236          
1 67078U 25298D   26176.16940198  .00005453  00000+0  46430-3 0  9990
2 67078  70.0015 103.5914 0002970 266.8439  93.2380 14.98339849 29310
STARLINK-36159          
1 67079U 25298E   26176.12348928  .00003281  00000+0  28262-3 0  9990
2 67079  70.0017 103.4408 0002311 269.7257  90.3637 14.98335850 29310
STARLINK-36158          
1 67080U 25298F   26176.18590777  .00006607  00000+0  56087-3 0  9990
2 67080  70.0012 103.2503 0002808 271.1558  88.9279 14.98340978 29326
STARLINK-35864          
1 67081U 25298G   26176.12749645  .00002264  00000+0  19744-3 0  9999
2 67081  70.0018 103.4488 0002841 252.9189 107.1659 14.98338056 29310
STARLINK-36035          
1 67082U 25298H   26176.13584682  .00007858  00000+0  66559-3 0  9999
2 67082  70.0011 103.4773 0002909 273.1609  86.9217 14.98330715 29316
STARLINK-36170          
1 67083U 25298J   26176.16088912  .00003665  00000+0  31472-3 0  9996
2 67083  70.0010 103.5546 0002502 267.9505  92.1367 14.98340698 29305
STARLINK-36166          
1 67084U 25298K   26176.17341500  .00008557  00000+0  72353-3 0  9991
2 67084  70.0012 103.6007 0002558 274.8487  85.2380 14.98361163 29317
STARLINK-35794          
1 67085U 25298L   26176.14420868  .00000088  00000+0  15197-4 0  9999
2 67085  70.0011 103.5065 0002818 267.2351  92.8486 14.98319717 29314
STARLINK-35841          
1 67086U 25298M   26176.16506233  .00004116  00000+0  35243-3 0  9992
2 67086  70.0011 103.5704 0002794 261.5498  98.5344 14.98341181 29313
STARLINK-35842          
1 67087U 25298N   26176.14018612  .00006313  00000+0  53630-3 0  9991
2 67087  70.0016 103.5048 0003388 263.9809  96.0964 14.98334127 29315
STARLINK-35882          
1 67088U 25298P   26176.17758464  .00002475  00000+0  21509-3 0  9996
2 67088  70.0013 103.6149 0003445 249.9352 110.1437 14.98336861 29317
STARLINK-35763          
1 67089U 25298Q   26176.18192699  .00002686  00000+0  23279-3 0  9990
2 67089  70.0016 103.6345 0002728 269.1849  90.8997 14.98335090 29315
STARLINK-36060          
1 67090U 25298R   26176.14853464  .00003740  00000+0  32100-3 0  9997
2 67090  70.0015 103.5161 0002540 262.9464  97.1406 14.98337543 29317
STARLINK-36097          
1 67091U 25298S   26176.16861691  .00055339  00000+0  13801-2 0  9998
2 67091  69.9951  87.5605 0010640 215.8814 144.1653 15.39862132 29718
STARLINK-35792          
1 67092U 25298T   26176.16524726  .00003991  00000+0  34217-3 0  9996
2 67092  70.0014 103.5758 0002677 264.7593  95.3261 14.98324161 29315
STARLINK-35784          
1 67093U 25298U   26176.13167264  .00006177  00000+0  52489-3 0  9994
2 67093  70.0013 103.4630 0002444 269.9204  90.1675 14.98338535 29313
STARLINK-36202          
1 67094U 25298V   26176.12332053  .00003303  00000+0  28442-3 0  9994
2 67094  70.0015 103.4323 0003013 257.3054 102.7769 14.98339077 29318
STARLINK-36227          
1 67095U 25298W   26176.14435618  .00004690  00000+0  40044-3 0  9990
2 67095  70.0013 103.5012 0003344 249.8551 110.2248 14.98342558 29312
STARLINK-36228          
1 67096U 25298X   26176.15671419  .00004220  00000+0  36117-3 0  9998
2 67096  70.0012 103.5396 0002440 272.6845  87.4035 14.98342689 29317
STARLINK-36222          
1 67097U 25298Y   26176.16923863  .00002342  00000+0  20399-3 0  9991
2 67097  70.0012 103.5835 0002870 268.7540  91.3290 14.98335389 29317
STARLINK-36205          
1 67098U 25298Z   26176.14003679  .00002462  00000+0  21415-3 0  9997
2 67098  70.0021 103.4906 0002555 270.6782  89.4084 14.98316122 29319
STARLINK-36193          
1 67099U 25298AA  26176.19441344  .00009135  00000+0  77192-3 0  9995
2 67099  70.0016 103.2892 0003034 264.0769  96.0045 14.98354888 29324
STARLINK-36215          
1 67100U 25298AB  26176.14836852  .00000587  00000+0  56936-4 0  9991
2 67100  70.0018 103.5099 0002739 268.8360  91.2486 14.98339113 29310
STARLINK-36200          
1 67101U 25298AC  26176.17357646  .00003467  00000+0  29810-3 0  9994
2 67101  70.0015 103.6046 0002624 268.0877  91.9981 14.98340028 29313
STARLINK-36255          
1 67102U 25299A   26174.80308057  .00018406  00000+0  67658-3 0  9997
2 67102  42.9989 289.8349 0001156 277.0720  83.0000 15.27585823 29345
STARLINK-36256          
1 67103U 25299B   26174.79665004  .00016560  00000+0  60951-3 0  9992
2 67103  42.9998 289.7892 0001597 280.4025  79.6647 15.27603240 29345
STARLINK-36258          
1 67104U 25299C   26174.61462824  .00016830  00000+0  61966-3 0  9996
2 67104  43.0010 290.9943 0001335 277.2729  82.7971 15.27582276 29316
STARLINK-36261          
1 67105U 25299D   26174.60306750  .00017598  00000+0  64736-3 0  9991
2 67105  43.0031 290.9200 0001172 278.0654  82.0065 15.27587185 29312
STARLINK-36259          
1 67106U 25299E   26175.03249692  .00022089  00000+0  80943-3 0  9990
2 67106  43.0043 288.1160 0001851 279.2569  80.8074 15.27595566 29387
