OBJECT_NAME,OBJECT_ID,EPOCH,MEAN_MOTION,ECCENTRICITY,INCLINATION,RA_OF_ASC_NODE,ARG_OF_PERICENTER,MEAN_ANOMALY,EPHEMERIS_TYPE,CLASSIFICATION_TYPE,NORAD_CAT_ID,ELEMENT_SET_NO,REV_AT_EPOCH,BSTAR,MEAN_MOTION_DOT,MEAN_MOTION_DDOT
STARLINK-36243,2025-298C,2026-06-25T04:15:57.794400,14.98358130,.0003174,70.0009,103.6207,262.5905,97.4894,0,U,67077,999,2931,.53182E-3,.6263E-4,0
STARLINK-36236,2025-298D,2026-06-25T04:03:56.331072,14.98339849,.000297,70.0015,103.5914,266.8439,93.2380,0,U,67078,999,2931,.4643E-3,.5453E-4,0
STARLINK-36159,2025-298E,2026-06-25T02:57:49.473792,14.98335850,.0002311,70.0017,103.4408,269.7257,90.3637,0,U,67079,999,2931,.28262E-3,.3281E-4,0
STARLINK-36158,2025-298F,2026-06-25T04:27:42.431328,14.98340978,.0002808,70.0012,103.2503,271.1558,88.9279,0,U,67080,999,2932,.56087E-3,.6607E-4,0
STARLINK-35864,2025-298G,2026-06-25T03:03:35.693280,14.98338056,.0002841,70.0018,103.4488,252.9189,107.1659,0,U,67081,999,2931,.19744E-3,.2264E-4,0
STARLINK-36035,2025-298H,2026-06-25T03:15:37.165248,14.98330715,.0002909,70.0011,103.4773,273.1609,86.9217,0,U,67082,999,2931,.66559E-3,.7858E-4,0
STARLINK-36170,2025-298J,2026-06-25T03:51:40.819968,14.98340698,.0002502,70.0010,103.5546,267.9505,92.1367,0,U,67083,999,2930,.31472E-3,.3665E-4,0
STARLINK-36166,2025-298K,2026-06-25T04:09:43.056000,14.98361163,.0002558,70.0012,103.6007,274.8487,85.2380,0,U,67084,999,2931,.72353E-3,.8557E-4,0
STARLINK-35794,2025-298L,2026-06-25T03:27:39.629952,14.98319717,.0002818,70.0011,103.5065,267.2351,92.8486,0,U,67085,999,2931,.15197E-4,.88E-6,0
STARLINK-35841,2025-298M,2026-06-25T03:57:41.385312,14.98341181,.0002794,70.0011,103.5704,261.5498,98.5344,0,U,67086,999,2931,.35243E-3,.4116E-4,0
STARLINK-35842,2025-298N,2026-06-25T03:21:52.080768,14.98334127,.0003388,70.0016,103.5048,263.9809,96.0964,0,U,67087,999,2931,.5363E-3,.6313E-4,0
STARLINK-35882,2025-298P,2026-06-25T04:15:43.312896,14.98336861,.0003445,70.0013,103.6149,249.9352,110.1437,0,U,67088,999,2931,.21509E-3,.2475E-4,0
STARLINK-35763,2025-298Q,2026-06-25T04:21:58.491936,14.98335090,.0002728,70.0016,103.6345,269.1849,90.8997,0,U,67089,999,2931,.23279E-3,.2686E-4,0
STARLINK-36060,2025-298R,2026-06-25T03:33:53.392896,14.98337543,.000254,70.0015,103.5161,262.9464,97.1406,0,U,67090,999,2931,.321E-3,.374E-4,0
STARLINK-36097,2025-298S,2026-06-25T04:02:48.501024,15.39862132,.001064,69.9951,87.5605,215.8814,144.1653,0,U,67091,999,2971,.13801E-2,.55339E-3,0
STARLINK-35792,2025-298T,2026-06-25T03:57:57.363264,14.98324161,.0002677,70.0014,103.5758,264.7593,95.3261,0,U,67092,999,2931,.34217E-3,.3991E-4,0
STARLINK-35784,2025-298U,2026-06-25T03:09:36.516096,14.98338535,.0002444,70.0013,103.4630,269.9204,90.1675,0,U,67093,999,2931,.52489E-3,.6177E-4,0
STARLINK-36202,2025-298V,2026-06-25T02:57:34.893792,14.98339077,.0003013,70.0015,103.4323,257.3054,102.7769,0,U,67094,999,2931,.28442E-3,.3303E-4,0
STARLINK-36227,2025-298W,2026-06-25T03:27:52.373952,14.98342558,.0003344,70.0013,103.5012,249.8551,110.2248,0,U,67095,999,2931,.40044E-3,.469E-4,0
STARLINK-36228,2025-298X,2026-06-25T03:45:40.106016,14.98342689,.000244,70.0012,103.5396,272.6845,87.4035,0,U,67096,999,2931,.36117E-3,.422E-4,0
STARLINK-36222,2025-298Y,2026-06-25T04:03:42.217632,14.98335389,.000287,70.0012,103.5835,268.7540,91.3290,0,U,67097,999,2931,.20399E-3,.2342E-4,0
STARLINK-36205,2025-298Z,2026-06-25T03:21:39.178656,14.98316122,.0002555,70.0021,103.4906,270.6782,89.4084,0,U,67098,999,2931,.21415E-3,.2462E-4,0
STARLINK-36193,2025-298AA,2026-06-25T04:39:57.321216,14.98354888,.0003034,70.0016,103.2892,264.0769,96.0045,0,U,67099,999,2932,.77192E-3,.9135E-4,0
STARLINK-36215,2025-298AB,2026-06-25T03:33:39.040128,14.98339113,.0002739,70.0018,103.5099,268.8360,91.2486,0,U,67100,999,2931,.56936E-4,.587E-5,0
STARLINK-36200,2025-298AC,2026-06-25T04:09:57.006144,14.98340028,.0002624,70.0015,103.6046,268.0877,91.9981,0,U,67101,999,2931,.2981E-3,.3467E-4,0
STARLINK-36255,2025-299A,2026-06-23T19:16:26.161248,15.27585823,.00011562,42.9989,289.8349,277.0720,83.0000,0,U,67102,999,2934,.67657641E-3,.18406E-3,0
STARLINK-36256,2025-299B,2026-06-23T19:07:10.563456,15.27603240,.00015974,42.9998,289.7892,280.4025,79.6647,0,U,67103,999,2934,.6095068E-3,.1656E-3,0
STARLINK-36258,2025-299C,2026-06-23T14:45:03.879936,15.27582276,.00013357,43.0010,290.9943,277.2729,82.7971,0,U,67104,999,2931,.61966183E-3,.1683E-3,0
STARLINK-36261,2025-299D,2026-06-23T14:28:25.032000,15.27587185,.00011723,43.0031,290.9200,278.0654,82.0065,0,U,67105,999,2931,.64735991E-3,.17598E-3,0
STARLINK-36259,2025-299E,2026-06-24T00:46:47.733888,15.27595566,.0001851,43.0043,288.1160,279.2569,80.8074,0,U,67106,999,2938,.80942752E-3,.22089E-3,0
